[
    {
        "CCSDS_OMM_VERS": "3.0",
        "COMMENT": "GENERATED VIA SPACE-TRACK.ORG API",
        "CREATION_DATE": "2025-04-12T22:09:39",
        "ORIGINATOR": "18 SPCS",
        "OBJECT_NAME": "BEIDOU 3M13",
        "OBJECT_ID": "2018-072A",
        "CENTER_NAME": "EARTH",
        "REF_FRAME": "TEME",
        "TIME_SYSTEM": "UTC",
        "MEAN_ELEMENT_THEORY": "SGP4",
        "EPOCH": "2025-04-12T08:40:05.844000",
        "MEAN_MOTION": "1.86231383",
        "ECCENTRICITY": "0.00089750",
        "INCLINATION": "56.2469",
        "RA_OF_ASC_NODE": "76.9182",
        "ARG_OF_PERICENTER": "308.2384",
        "MEAN_ANOMALY": "51.6575",
        "EPHEMERIS_TYPE": "0",
        "CLASSIFICATION_TYPE": "U",
        "NORAD_CAT_ID": "43622",
        "ELEMENT_SET_NO": "999",
        "REV_AT_EPOCH": "4463",
        "BSTAR": "0.00000000000000",
        "MEAN_MOTION_DOT": "-0.00000016",
        "MEAN_MOTION_DDOT": "0.0000000000000",
        "SEMIMAJOR_AXIS": "27906.150",
        "PERIOD": "773.232",
        "APOAPSIS": "21553.061",
        "PERIAPSIS": "21502.970",
        "OBJECT_TYPE": "PAYLOAD",
        "RCS_SIZE": "LARGE",
        "COUNTRY_CODE": "PRC",
        "LAUNCH_DATE": "2018-09-19",
        "SITE": "XSC",
        "DECAY_DATE": null,
        "FILE": "4699941",
        "GP_ID": "285446808",
        "TLE_LINE0": "0 BEIDOU 3M13",
        "TLE_LINE1": "1 43622U 18072A   25102.36117875 -.00000016  00000-0  00000-0 0  9991",
        "TLE_LINE2": "2 43622  56.2469  76.9182 0008975 308.2384  51.6575  1.86231383 44632"
    }
]